ONEWEB-0156             
1 48052U 21025L   25195.57522896 -.00000146  00000+0 -43419-3 0  9991
2 48052  87.8952  27.2855 0001683  85.6486 274.4836 13.13471410209262
ONEWEB-0161             
1 48053U 21025M   25195.54986322 -.00000101  00000+0 -31022-3 0  9995
2 48053  87.8957  27.3087 0001708  82.9067 277.2256 13.13469908209186
ONEWEB-0158             
1 48054U 21025N   25195.58540286  .00000065  00000+0  14186-3 0  9994
2 48054  87.8957  27.2811 0001975  92.5845 267.5510 13.13472601209312
ONEWEB-0157             
1 48055U 21025P   25195.61078159  .00000153  00000+0  38287-3 0  9990
2 48055  87.8953  27.2867 0001672  73.8714 286.2599 13.13470023209255
ONEWEB-0162             
1 48056U 21025Q   25195.58694817  .00000224  00000+0  57834-3 0  9990
2 48056  87.8952  27.2895 0001766  87.3601 272.7730 13.13471187209221
ONEWEB-0155             
1 48057U 21025R   25195.59386275  .00000234  00000+0  60688-3 0  9990
2 48057  87.8951  27.2964 0001933  83.1895 276.9454 13.13469856209367
ONEWEB-0149             
1 48058U 21025S   25195.53968227  .00000043  00000+0  81867-4 0  9999
2 48058  87.8952  27.3019 0001588  90.7800 269.3511 13.13470334209179
ONEWEB-0148             
1 48059U 21025T   25195.57862515 -.00000987  00000+0 -27375-2 0  9998
2 48059  87.8955  27.3178 0001157  84.3069 275.8192 13.13463691209295
ONEWEB-0160             
1 48060U 21025U   25195.59555319  .00000336  00000+0  88585-3 0  9990
2 48060  87.8955  27.3116 0002340 106.9015 253.2371 13.13470894209243
ONEWEB-0163             
1 48061U 21025V   25195.58031337 -.00000668  00000+0 -18645-2 0  9998
2 48061  87.8951  27.2954 0001782  78.4771 281.6558 13.13474815209362
ONEWEB-0159             
1 48062U 21025W   25195.57184248 -.00000196  00000+0 -57248-3 0  9997
2 48062  87.8952  27.2782 0001646  82.1062 278.0253 13.13473017209283
ONEWEB-0164             
1 48063U 21025X   25195.55321814 -.00000210  00000+0 -60881-3 0  9992
2 48063  87.8952  27.2925 0001873  89.4648 270.6696 13.13468811209268
ONEWEB-0167             
1 48064U 21025Y   25195.58116915  .00000034  00000+0  58168-4 0  9998
2 48064  87.8961  27.3173 0002364  72.1918 287.9468 13.13469881209255
ONEWEB-0166             
1 48065U 21025Z   25195.52783961  .00000334  00000+0  87862-3 0  9999
2 48065  87.8950  27.2829 0001613  87.3065 272.8249 13.13468624209320
ONEWEB-0151             
1 48066U 21025AA  25195.52953028  .00000324  00000+0  85325-3 0  9994
2 48066  87.8952  27.3056 0001919  85.6321 274.5027 13.13470441209267
ONEWEB-0170             
1 48067U 21025AB  25195.61416924  .00000084  00000+0  19409-3 0  9997
2 48067  87.8955  27.2942 0002283  92.2528 267.8863 13.13467915209234
ONEWEB-0168             
1 48068U 21025AC  25195.52275744  .00000315  00000+0  82748-3 0  9994
2 48068  87.8956  27.2934 0001814  86.2304 273.9033 13.13470649209236
ONEWEB-0173             
1 48069U 21025AD  25195.51429425  .00000261  00000+0  68034-3 0  9993
2 48069  87.8955  27.3033 0001924  71.6137 288.5201 13.13471278209475
ONEWEB-0171             
1 48070U 21025AE  25195.55153341 -.00000246  00000+0 -70942-3 0  9996
2 48070  87.8958  27.3336 0001888  86.6996 273.4349 13.13470452209293
ONEWEB-0172             
1 48071U 21025AF  25195.53122142  .00000313  00000+0  82322-3 0  9998
2 48071  87.8957  27.3041 0001924  84.0859 276.0489 13.13468914210181
ONEWEB-0174             
1 48072U 21025AG  25195.58878125  .00000186  00000+0  47306-3 0  9994
2 48072  87.8956  27.3062 0001691  86.6813 273.4510 13.13471258209519
ONEWEB-0175             
1 48073U 21025AH  25195.54306803 -.00000042  00000+0 -14993-3 0  9999
2 48073  87.8951  27.2811 0002147  86.2438 273.8936 13.13470016209160
ONEWEB-0177             
1 48074U 21025AJ  25195.47872915 -.00000247  00000+0 -71009-3 0  9992
2 48074  87.8956  27.3078 0001753  81.6383 278.4945 13.13468560209344
ONEWEB-0178             
1 48075U 21025AK  25195.57368584 -.00000154  00000+0 -45565-3 0  9991
2 48075  87.8954  27.3336 0002021  81.6986 278.4373 13.13470970209408
ONEWEB-0108             
1 48076U 21025AL  25195.53291039  .00000217  00000+0  55849-3 0  9992
2 48076  87.8952  27.2921 0001700  95.6822 264.4501 13.13470466209322
ONEWEB-0169             
1 48077U 21025AM  25195.56507216 -.00000316  00000+0 -90003-3 0  9996
2 48077  87.8956  27.3062 0001702  95.3783 264.7540 13.13468590207980
ONEWEB-0176             
1 48210U 21031A   25195.52049687  .00000215  00000+0  54533-3 0  9995
2 48210  87.9051 356.8852 0001839  94.5471 265.5869 13.14504150203959
ONEWEB-0184             
1 48211U 21031B   25195.41740674 -.00000160  00000+0 -46501-3 0  9995
2 48211  87.9042 356.8749 0002644  82.3929 277.7501 13.14503014203915
ONEWEB-0179             
1 48212U 21031C   25195.46419519 -.00000086  00000+0 -26703-3 0  9991
2 48212  87.9051 356.8837 0001716  92.2380 267.8947 13.14503613203968
ONEWEB-0180             
1 48213U 21031D   25195.49670645 -.00000002  00000+0 -40052-4 0  9996
2 48213  87.9048 356.8643 0001897  86.1315 274.0031 13.14503322203859
ONEWEB-0218             
1 48214U 21031E   25195.51892210  .00000270  00000+0  69257-3 0  9996
2 48214  87.9047 356.8609 0002518  75.9815 284.1595 13.14502541204011
ONEWEB-0209             
1 48215U 21031F   25195.73616687  .00000212  00000+0  53806-3 0  9992
2 48215  87.9049 356.8612 0001688  89.8918 270.2405 13.14503642204045
ONEWEB-0198             
1 48216U 21031G   25195.49195827 -.00000031  00000+0 -11888-3 0  9999
2 48216  87.9048 356.9112 0001949  83.1318 277.0034 13.14502798204125
ONEWEB-0189             
1 48217U 21031H   25195.50463313  .00000129  00000+0  31351-3 0  9993
2 48217  87.9046 356.8824 0001931  81.1458 278.9890 13.14503814203867
ONEWEB-0196             
1 48218U 21031J   25195.48243712 -.00000173  00000+0 -50179-3 0  9990
2 48218  87.9047 356.8985 0001900  90.7852 269.3495 13.14503435203861
ONEWEB-0183             
1 48219U 21031K   25195.45702453  .00000010  00000+0 -65215-5 0  9998
2 48219  87.9049 356.9160 0001655  96.0381 264.0937 13.14505958203958
ONEWEB-0185             
1 48220U 21031L   25195.48321794 -.00000158  00000+0 -46104-3 0  9996
2 48220  87.9045 356.8769 0001406  89.3078 270.8212 13.14503645203886
ONEWEB-0187             
1 48221U 21031M   25195.46326157 -.00000062  00000+0 -20117-3 0  9993
2 48221  87.9052 356.9268 0001597  84.6697 275.4614 13.14503573203894
ONEWEB-0192             
1 48222U 21031N   25195.50939711  .00000267  00000+0  68612-3 0  9992
2 48222  87.9049 356.9104 0001888  90.6219 269.5127 13.14503010203811
ONEWEB-0219             
1 48223U 21031P   25195.48878357 -.00000103  00000+0 -31148-3 0  9993
2 48223  87.9047 356.8871 0001711  88.6523 271.4802 13.14503064204014
ONEWEB-0202             
1 48224U 21031Q   25195.46975214 -.00000119  00000+0 -35411-3 0  9996
2 48224  87.9050 356.9056 0002241  74.6986 285.4392 13.14503270203996
ONEWEB-0204             
1 48225U 21031R   25195.50384276  .00000105  00000+0  24977-3 0  9992
2 48225  87.9030 356.8965 0001617 100.6828 259.4484 13.14503279203895
ONEWEB-0205             
1 48226U 21031S   25195.47926837 -.00000176  00000+0 -50911-3 0  9991
2 48226  87.9048 356.8871 0001663  88.5099 271.6221 13.14503020203907
ONEWEB-0206             
1 48227U 21031T   25195.45230894  .00000098  00000+0  23079-3 0  9997
2 48227  87.9047 356.8725 0001710  92.6198 267.5128 13.14503342203855
ONEWEB-0182             
1 48228U 21031U   25195.67589457  .00000237  00000+0  60474-3 0  9999
2 48228  87.9052 356.8719 0001759  98.2489 261.8840 13.14500963204106
ONEWEB-0186             
1 48229U 21031V   25195.45865209  .00000029  00000+0  45084-4 0  9998
2 48229  87.9049 356.8760 0001774  90.5759 269.5574 13.14502987204018
ONEWEB-0181             
1 48230U 21031W   25195.43645120  .00000254  00000+0  65156-3 0  9997
2 48230  87.9049 356.9525 0001857  87.9946 272.1396 13.14503462203863
ONEWEB-0188             
1 48231U 21031X   25195.47450991 -.00000190  00000+0 -54619-3 0  9995
2 48231  87.9048 356.9359 0001782  93.0142 267.1192 13.14502900203775
ONEWEB-0220             
1 48232U 21031Y   25195.51414915  .00000276  00000+0  71091-3 0  9993
2 48232  87.9042 356.8696 0001601  88.9974 271.1339 13.14501967204040
ONEWEB-0165             
1 48233U 21031Z   25195.46657003 -.00000069  00000+0 -22166-3 0  9996
2 48233  87.9051 356.9217 0001665  87.5795 272.5526 13.14504935203991
ONEWEB-0199             
1 48234U 21031AA  25195.52684488  .00000139  00000+0  33979-3 0  9991
2 48234  87.9049 356.8734 0001878  97.2121 262.9223 13.14502828203906
ONEWEB-0203             
1 48235U 21031AB  25195.51732545  .00000226  00000+0  57445-3 0  9990
2 48235  87.9048 356.8781 0002097  91.7202 268.4168 13.14503114203910
ONEWEB-0197             
1 48236U 21031AC  25195.49273998 -.00000047  00000+0 -16069-3 0  9990
2 48236  87.9036 356.8847 0001553  99.9812 260.1493 13.14501842203820
ONEWEB-0194             
1 48237U 21031AD  25195.47134095 -.00000153  00000+0 -44658-3 0  9996
2 48237  87.9048 356.8954 0002048  97.2294 262.9069 13.14503387203991
ONEWEB-0193             
1 48238U 21031AE  25195.48720828 -.00000108  00000+0 -32667-3 0  9990
2 48238  87.9043 356.8998 0001961  90.2080 269.9274 13.14504107203945
ONEWEB-0191             
1 48239U 21031AF  25195.49830188  .00000048  00000+0  93684-4 0  9991
2 48239  87.9047 356.8695 0002083  92.0179 268.1189 13.14502385203806
ONEWEB-0195             
1 48240U 21031AG  25195.47529817 -.00000240  00000+0 -68095-3 0  9998
2 48240  87.9047 356.8717 0001864  80.9215 279.2126 13.14503951203787
ONEWEB-0201             
1 48241U 21031AH  25195.46354343 -.00000057  00000+0 -18904-3 0  9998
2 48241  87.9050 356.9214 0001517  88.9865 271.1438 13.14503379204017
ONEWEB-0207             
1 48242U 21031AJ  25195.51969708  .00000283  00000+0  72868-3 0  9990
2 48242  87.9047 356.8706 0001590  93.6697 266.4615 13.14501950203933
